SEEDS II (CO-66)        
1 32791U 08021J   26068.92109284  .00023758  00000+0  84213-3 0  9995
2 32791  97.7519  62.3611 0001448 359.2618   0.8619 15.29097235972108
STARLINK-2371           
1 47911U 21021BD  26068.90406049  .00000661  00000+0  34458-4 0  9992
2 47911  53.1600 279.9967 0001188  91.3442 268.7695 15.30182203275944
